{
  "type": "FeatureCollection",
  "features": [
    {
      "type": "Feature",
      "properties": {
        "norad_id": 62876,
        "name": "QZS-6 (QZSS/PRN 200)",
        "group": "gnss",
        "lat": -0.04396048394198372,
        "lon": -76.83897547617548,
        "alt_km": 35779.4090871867,
        "timestamp": "2025-12-18T07:01:54.833173+00:00",
        "meta_object_name": "QZS-6 (QZSS/PRN 200)",
        "meta_object_id": "2025-023A",
        "meta_epoch": "2025-12-17T20:36:16.236864",
        "meta_mean_motion": 1.00273314,
        "meta_eccentricity": 0.00014959,
        "meta_inclination": 0.044,
        "meta_ra_of_asc_node": 66.4098,
        "meta_arg_of_pericenter": 210.103,
        "meta_mean_anomaly": 209.8165,
        "meta_ephemeris_type": 0,
        "meta_classification_type": "U",
        "meta_norad_cat_id": 62876,
        "meta_element_set_no": 999,
        "meta_rev_at_epoch": 314,
        "meta_bstar": 0,
        "meta_mean_motion_dot": -2.09e-06,
        "meta_mean_motion_ddot": 0,
        "tle_line1": "1 62876U 25023A   25351.85852126 -.00000209  00000+0  00000+0 0  9994",
        "tle_line2": "2 62876   0.0440  66.4098 0001495 210.1030 209.8165  1.00273314  3148"
      },
      "geometry": {
        "type": "Point",
        "coordinates": [
          -76.83897547617548,
          -0.04396048394198372
        ]
      }
    },
    {
      "type": "Feature",
      "properties": {
        "norad_id": 63130,
        "name": "COSMOS 2584 (704K)",
        "group": "gnss",
        "lat": -35.224694486381445,
        "lon": -81.81403163219237,
        "alt_km": 19114.76534800179,
        "timestamp": "2025-12-18T07:01:54.833187+00:00",
        "meta_object_name": "COSMOS 2584 (704K)",
        "meta_object_id": "2025-042A",
        "meta_epoch": "2025-12-14T17:19:43.603680",
        "meta_mean_motion": 2.13103043,
        "meta_eccentricity": 0.00076907,
        "meta_inclination": 64.977,
        "meta_ra_of_asc_node": 79.0784,
        "meta_arg_of_pericenter": 217.9412,
        "meta_mean_anomaly": 142.0178,
        "meta_ephemeris_type": 0,
        "meta_classification_type": "U",
        "meta_norad_cat_id": 63130,
        "meta_element_set_no": 999,
        "meta_rev_at_epoch": 611,
        "meta_bstar": 0,
        "meta_mean_motion_dot": -5.6e-07,
        "meta_mean_motion_ddot": 0,
        "tle_line1": "1 63130U 25042A   25348.72203245 -.00000056  00000+0  00000+0 0  9993",
        "tle_line2": "2 63130  64.9770  79.0784 0007690 217.9412 142.0178  2.13103043  6119"
      },
      "geometry": {
        "type": "Point",
        "coordinates": [
          -81.81403163219237,
          -35.224694486381445
        ]
      }
    },
    {
      "type": "Feature",
      "properties": {
        "norad_id": 64202,
        "name": "GPS BIII-8  (PRN 21)",
        "group": "gnss",
        "lat": 32.05668988693912,
        "lon": -167.45251752853852,
        "alt_km": 20193.354194683354,
        "timestamp": "2025-12-18T07:01:54.833198+00:00",
        "meta_object_name": "GPS BIII-8  (PRN 21)",
        "meta_object_id": "2025-116A",
        "meta_epoch": "2025-12-14T02:46:13.653120",
        "meta_mean_motion": 2.00558299,
        "meta_eccentricity": 0.00056153,
        "meta_inclination": 55.1067,
        "meta_ra_of_asc_node": 38.5851,
        "meta_arg_of_pericenter": 308.147,
        "meta_mean_anomaly": 55.2369,
        "meta_ephemeris_type": 0,
        "meta_classification_type": "U",
        "meta_norad_cat_id": 64202,
        "meta_element_set_no": 999,
        "meta_rev_at_epoch": 416,
        "meta_bstar": 0,
        "meta_mean_motion_dot": -9.6e-07,
        "meta_mean_motion_ddot": 0,
        "tle_line1": "1 64202U 25116A   25348.11543580 -.00000096  00000+0  00000+0 0  9992",
        "tle_line2": "2 64202  55.1067  38.5851 0005615 308.1470  55.2369  2.00558299  4161"
      },
      "geometry": {
        "type": "Point",
        "coordinates": [
          -167.45251752853852,
          32.05668988693912
        ]
      }
    },
    {
      "type": "Feature",
      "properties": {
        "norad_id": 65590,
        "name": "COSMOS 2596 (708K)",
        "group": "gnss",
        "lat": -19.79029345859843,
        "lon": -48.51222853798921,
        "alt_km": 19102.313707708367,
        "timestamp": "2025-12-18T07:01:54.833209+00:00",
        "meta_object_name": "COSMOS 2596 (708K)",
        "meta_object_id": "2025-206B",
        "meta_epoch": "2025-12-16T13:58:37.157664",
        "meta_mean_motion": 2.13100551,
        "meta_eccentricity": 0.00140491,
        "meta_inclination": 64.7424,
        "meta_ra_of_asc_node": 321.3409,
        "meta_arg_of_pericenter": 306.7915,
        "meta_mean_anomaly": 158.8114,
        "meta_ephemeris_type": 0,
        "meta_classification_type": "U",
        "meta_norad_cat_id": 65590,
        "meta_element_set_no": 999,
        "meta_rev_at_epoch": 202,
        "meta_bstar": 0,
        "meta_mean_motion_dot": -6.9e-07,
        "meta_mean_motion_ddot": 0,
        "tle_line1": "1 65590U 25206B   25350.58237451 -.00000069  00000+0  00000+0 0  9994",
        "tle_line2": "2 65590  64.7424 321.3409 0014049 306.7915 158.8114  2.13100551  2025"
      },
      "geometry": {
        "type": "Point",
        "coordinates": [
          -48.51222853798921,
          -19.79029345859843
        ]
      }
    },
    {
      "type": "Feature",
      "properties": {
        "norad_id": 67160,
        "name": "GALILEO A",
        "group": "gnss",
        "lat": 54.225569054622305,
        "lon": -160.44380018464736,
        "alt_km": 22956.58525975465,
        "timestamp": "2025-12-18T07:01:54.833223+00:00",
        "meta_object_name": "GALILEO A",
        "meta_object_id": "2025-302A",
        "meta_epoch": "2025-12-17T13:37:30.925056",
        "meta_mean_motion": 1.72900439,
        "meta_eccentricity": 0.00075221,
        "meta_inclination": 54.2352,
        "meta_ra_of_asc_node": 107.2635,
        "meta_arg_of_pericenter": 237.6848,
        "meta_mean_anomaly": 122.2012,
        "meta_ephemeris_type": 0,
        "meta_classification_type": "U",
        "meta_norad_cat_id": 67160,
        "meta_element_set_no": 999,
        "meta_rev_at_epoch": 1,
        "meta_bstar": 0,
        "meta_mean_motion_dot": -8e-08,
        "meta_mean_motion_ddot": 0,
        "tle_line1": "1 67160U 25302A   25351.56771904 -.00000008  00000+0  00000+0 0  9994",
        "tle_line2": "2 67160  54.2352 107.2635 0007522 237.6848 122.2012  1.72900439    17"
      },
      "geometry": {
        "type": "Point",
        "coordinates": [
          -160.44380018464736,
          54.225569054622305
        ]
      }
    },
    {
      "type": "Feature",
      "properties": {
        "norad_id": 67161,
        "name": "GALILEO B",
        "group": "gnss",
        "lat": 54.21273452199182,
        "lon": -160.03089764474132,
        "alt_km": 22943.97290614633,
        "timestamp": "2025-12-18T07:01:54.833235+00:00",
        "meta_object_name": "GALILEO B",
        "meta_object_id": "2025-302B",
        "meta_epoch": "2025-12-17T13:37:26.172192",
        "meta_mean_motion": 1.72965674,
        "meta_eccentricity": 0.00048649,
        "meta_inclination": 54.2314,
        "meta_ra_of_asc_node": 107.2469,
        "meta_arg_of_pericenter": 248.2865,
        "meta_mean_anomaly": 111.6205,
        "meta_ephemeris_type": 0,
        "meta_classification_type": "U",
        "meta_norad_cat_id": 67161,
        "meta_element_set_no": 999,
        "meta_rev_at_epoch": 2,
        "meta_bstar": 0,
        "meta_mean_motion_dot": -8e-08,
        "meta_mean_motion_ddot": 0,
        "tle_line1": "1 67161U 25302B   25351.56766403 -.00000008  00000+0  00000+0 0  9993",
        "tle_line2": "2 67161  54.2314 107.2469 0004864 248.2865 111.6205  1.72965674    23"
      },
      "geometry": {
        "type": "Point",
        "coordinates": [
          -160.03089764474132,
          54.21273452199182
        ]
      }
    }
  ]
}